start=new Date('2021-11-20T00:00:00.000Z').valueOf();
sats=[{"FILE":"3219209","REV_AT_EPOCH":"5983","ARG_OF_PERICENTER":"77.5451","OBJECT_ID":"2020-074BC","BSTAR":"-0.00003423700000","EPHEMERIS_TYPE":"0","LAUNCH_DATE":"2020-10-24","MEAN_ANOMALY":"282.5744","COUNTRY_CODE":"US","CENTER_NAME":"EARTH","INCLINATION":"53.0529","TLE_LINE1":"1 46789U 20074BC  21323.30377477 -.00000791  00000-0 -34237-4 0  9998","SITE":"AFETR","NORAD_CAT_ID":"46789","SEMIMAJOR_AXIS":"6925.378","TIME_SYSTEM":"UTC","ELEMENT_SET_NO":"999","OBJECT_NAME":"STARLINK-1930","APOAPSIS":"548.517","CLASSIFICATION_TYPE":"U","MEAN_MOTION_DOT":"-0.00000791","RA_OF_ASC_NODE":"175.8408","ECCENTRICITY":"0.00018390","EPOCH":"2021-11-19T07:17:26.140128","MEAN_MOTION_DDOT":"0.0000000000000","MEAN_MOTION":"15.06390259","MEAN_ELEMENT_THEORY":"SGP4","REF_FRAME":"TEME","OBJECT_TYPE":"PAYLOAD","GP_ID":"190074548","PERIOD":"95.593","PERIAPSIS":"545.970","TLE_LINE2":"2 46789  53.0529 175.8408 0001839  77.5451 282.5744 15.06390259 59830","RCS_SIZE":"LARGE","DECAY_DATE":null},{"CENTER_NAME":"EARTH","TLE_LINE1":"1 46790U 20074BD  21323.21625845 -.00001037  00000-0 -50731-4 0  9996","SITE":"AFETR","INCLINATION":"53.0541","ARG_OF_PERICENTER":"73.8707","OBJECT_ID":"2020-074BD","FILE":"3219209","REV_AT_EPOCH":"5981","EPHEMERIS_TYPE":"0","BSTAR":"-0.00005073100000","COUNTRY_CODE":"US","LAUNCH_DATE":"2020-10-24","MEAN_ANOMALY":"286.2492","CLASSIFICATION_TYPE":"U","APOAPSIS":"548.569","OBJECT_NAME":"STARLINK-1931","MEAN_MOTION_DOT":"-0.00001037","RA_OF_ASC_NODE":"176.2295","SEMIMAJOR_AXIS":"6925.382","NORAD_CAT_ID":"46790","TIME_SYSTEM":"UTC","ELEMENT_SET_NO":"999","MEAN_MOTION":"15.06389085","MEAN_ELEMENT_THEORY":"SGP4","REF_FRAME":"TEME","OBJECT_TYPE":"PAYLOAD","EPOCH":"2021-11-19T05:11:24.730080","MEAN_MOTION_DDOT":"0.0000000000000","PERIOD":"95.593","GP_ID":"190074799","ECCENTRICITY":"0.00019090","RCS_SIZE":"LARGE","DECAY_DATE":null,"PERIAPSIS":"545.925","TLE_LINE2":"2 46790  53.0541 176.2295 0001909  73.8707 286.2492 15.06389085 59810"},{"MEAN_MOTION":"15.06391709","MEAN_ELEMENT_THEORY":"SGP4","REF_FRAME":"TEME","OBJECT_TYPE":"PAYLOAD","EPOCH":"2021-11-19T07:08:10.964832","MEAN_MOTION_DDOT":"0.0000000000000","PERIOD":"95.593","GP_ID":"190075551","ECCENTRICITY":"0.00019580","RCS_SIZE":"LARGE","DECAY_DATE":null,"PERIAPSIS":"545.883","TLE_LINE2":"2 46791  53.0527 175.8784 0001958  73.1580 286.9624 15.06391709 59831","CENTER_NAME":"EARTH","TLE_LINE1":"1 46791U 20074BE  21323.29734913 -.00000370  00000-0 -58974-5 0  9999","SITE":"AFETR","INCLINATION":"53.0527","ARG_OF_PERICENTER":"73.1580","OBJECT_ID":"2020-074BE","FILE":"3219209","REV_AT_EPOCH":"5983","EPHEMERIS_TYPE":"0","BSTAR":"-0.00000589740000","LAUNCH_DATE":"2020-10-24","COUNTRY_CODE":"US","MEAN_ANOMALY":"286.9624","CLASSIFICATION_TYPE":"U","APOAPSIS":"548.595","OBJECT_NAME":"STARLINK-1933","MEAN_MOTION_DOT":"-0.00000370","RA_OF_ASC_NODE":"175.8784","NORAD_CAT_ID":"46791","SEMIMAJOR_AXIS":"6925.374","TIME_SYSTEM":"UTC","ELEMENT_SET_NO":"999"},{"TLE_LINE2":"2 46792  53.0530 166.0523 0001690  82.9827 277.1354 15.06395300 59961","PERIAPSIS":"546.058","RCS_SIZE":"LARGE","DECAY_DATE":null,"ECCENTRICITY":"0.00016900","MEAN_MOTION":"15.06395300","MEAN_ELEMENT_THEORY":"SGP4","REF_FRAME":"TEME","OBJECT_TYPE":"PAYLOAD","EPOCH":"2021-11-19T06:11:07.166976","MEAN_MOTION_DDOT":"0.0000000000000","PERIOD":"95.592","GP_ID":"190075302","NORAD_CAT_ID":"46792","SEMIMAJOR_AXIS":"6925.363","TIME_SYSTEM":"UTC","ELEMENT_SET_NO":"999","CLASSIFICATION_TYPE":"U","APOAPSIS":"548.398","OBJECT_NAME":"STARLINK-1934","MEAN_MOTION_DOT":"-0.00000679","RA_OF_ASC_NODE":"166.0523","ARG_OF_PERICENTER":"82.9827","OBJECT_ID":"2020-074BF","FILE":"3219209","REV_AT_EPOCH":"5996","BSTAR":"-0.00002671800000","EPHEMERIS_TYPE":"0","LAUNCH_DATE":"2020-10-24","COUNTRY_CODE":"US","MEAN_ANOMALY":"277.1354","CENTER_NAME":"EARTH","TLE_LINE1":"1 46792U 20074BF  21323.25772184 -.00000679  00000-0 -26718-4 0  9990","SITE":"AFETR","INCLINATION":"53.0530"},{"GP_ID":"190074049","PERIOD":"95.592","MEAN_MOTION_DDOT":"0.0000000000000","EPOCH":"2021-11-19T06:52:15.027456","OBJECT_TYPE":"PAYLOAD","MEAN_MOTION":"15.06395988","REF_FRAME":"TEME","MEAN_ELEMENT_THEORY":"SGP4","ECCENTRICITY":"0.00018610","DECAY_DATE":null,"RCS_SIZE":"LARGE","TLE_LINE2":"2 46793  53.0557 175.9219 0001861  72.6930 287.4262 15.06395988 59822","PERIAPSIS":"545.937","INCLINATION":"53.0557","SITE":"AFETR","TLE_LINE1":"1 46793U 20074BG  21323.28628504  .00001309  00000-0  10681-3 0  9990","CENTER_NAME":"EARTH","LAUNCH_DATE":"2020-10-24","COUNTRY_CODE":"US","MEAN_ANOMALY":"287.4262","EPHEMERIS_TYPE":"0","BSTAR":"0.00010681000000","REV_AT_EPOCH":"5982","FILE":"3219209","OBJECT_ID":"2020-074BG","ARG_OF_PERICENTER":"72.6930","RA_OF_ASC_NODE":"175.9219","MEAN_MOTION_DOT":"0.00001309","OBJECT_NAME":"STARLINK-1941","APOAPSIS":"548.515","CLASSIFICATION_TYPE":"U","ELEMENT_SET_NO":"999","TIME_SYSTEM":"UTC","NORAD_CAT_ID":"46793","SEMIMAJOR_AXIS":"6925.361"},{"PERIOD":"95.593","GP_ID":"190074300","OBJECT_TYPE":"PAYLOAD","REF_FRAME":"TEME","MEAN_MOTION":"15.06392143","MEAN_ELEMENT_THEORY":"SGP4","MEAN_MOTION_DDOT":"0.0000000000000","EPOCH":"2021-11-19T07:02:52.729440","ECCENTRICITY":"0.00017610","DECAY_DATE":null,"RCS_SIZE":"LARGE","TLE_LINE2":"2 46794  53.0537 175.8969 0001761  77.0976 283.0209 15.06392143 59834","PERIAPSIS":"546.018","SITE":"AFETR","TLE_LINE1":"1 46794U 20074BH  21323.29366585 -.00000927  00000-0 -43341-4 0  9997","INCLINATION":"53.0537","CENTER_NAME":"EARTH","COUNTRY_CODE":"US","LAUNCH_DATE":"2020-10-24","MEAN_ANOMALY":"283.0209","EPHEMERIS_TYPE":"0","BSTAR":"-0.00004334100000","OBJECT_ID":"2020-074BH","ARG_OF_PERICENTER":"77.0976","REV_AT_EPOCH":"5983","FILE":"3219209","RA_OF_ASC_NODE":"175.8969","MEAN_MOTION_DOT":"-0.00000927","APOAPSIS":"548.457","CLASSIFICATION_TYPE":"U","OBJECT_NAME":"STARLINK-1942","ELEMENT_SET_NO":"999","TIME_SYSTEM":"UTC","SEMIMAJOR_AXIS":"6925.373","NORAD_CAT_ID":"46794"},{"TLE_LINE2":"2 46795  53.0491 112.2465 0000705  90.2317 269.8786 15.81181176 60742","PERIAPSIS":"326.629","RCS_SIZE":"LARGE","DECAY_DATE":null,"ECCENTRICITY":"0.00007050","OBJECT_TYPE":"PAYLOAD","MEAN_MOTION":"15.81181176","MEAN_ELEMENT_THEORY":"SGP4","REF_FRAME":"TEME","MEAN_MOTION_DDOT":"0.0000000000000","EPOCH":"2021-11-19T10:30:31.941216","PERIOD":"91.071","GP_ID":"190075052","NORAD_CAT_ID":"46795","SEMIMAJOR_AXIS":"6705.236","ELEMENT_SET_NO":"999","TIME_SYSTEM":"UTC","APOAPSIS":"327.574","CLASSIFICATION_TYPE":"U","OBJECT_NAME":"STARLINK-1943","RA_OF_ASC_NODE":"112.2465","MEAN_MOTION_DOT":"0.00778400","OBJECT_ID":"2020-074BJ","ARG_OF_PERICENTER":"90.2317","REV_AT_EPOCH":"6074","FILE":"3219209","LAUNCH_DATE":"2020-10-24","COUNTRY_CODE":"US","MEAN_ANOMALY":"269.8786","BSTAR":"0.00355160000000","EPHEMERIS_TYPE":"0","CENTER_NAME":"EARTH","SITE":"AFETR","TLE_LINE1":"1 46795U 20074BJ  21323.43786969  .00778400  00000-0  35516-2 0  9995","INCLINATION":"53.0491"},{"INCLINATION":"53.0543","TLE_LINE1":"1 46796U 20074BK  21323.53415874  .00001764  00000-0  13731-3 0  9999","SITE":"AFETR","CENTER_NAME":"EARTH","EPHEMERIS_TYPE":"0","BSTAR":"0.00013731000000","LAUNCH_DATE":"2020-10-24","COUNTRY_CODE":"US","MEAN_ANOMALY":"279.5928","FILE":"3219209","REV_AT_EPOCH":"6000","ARG_OF_PERICENTER":"80.5258","OBJECT_ID":"2020-074BK","MEAN_MOTION_DOT":"0.00001764","RA_OF_ASC_NODE":"164.8082","OBJECT_NAME":"STARLINK-1944","APOAPSIS":"548.414","CLASSIFICATION_TYPE":"U","TIME_SYSTEM":"UTC","ELEMENT_SET_NO":"999","NORAD_CAT_ID":"46796","SEMIMAJOR_AXIS":"6925.340","GP_ID":"190075802","PERIOD":"95.592","EPOCH":"2021-11-19T12:49:11.315136","MEAN_MOTION_DDOT":"0.0000000000000","MEAN_MOTION":"15.06402779","MEAN_ELEMENT_THEORY":"SGP4","REF_FRAME":"TEME","OBJECT_TYPE":"PAYLOAD","ECCENTRICITY":"0.00017450","DECAY_DATE":null,"RCS_SIZE":"LARGE","PERIAPSIS":"545.997","TLE_LINE2":"2 46796  53.0543 164.8082 0001745  80.5258 279.5928 15.06402779 60007"},{"OBJECT_ID":"2020-074BL","ARG_OF_PERICENTER":"67.7221","REV_AT_EPOCH":"6050","FILE":"3219209","LAUNCH_DATE":"2020-10-24","COUNTRY_CODE":"US","MEAN_ANOMALY":"292.3873","BSTAR":"0.00020941000000","EPHEMERIS_TYPE":"0","CENTER_NAME":"EARTH","SITE":"AFETR","TLE_LINE1":"1 46797U 20074BL  21323.50387521  .00014383  00000-0  20941-3 0  9996","INCLINATION":"53.0545","NORAD_CAT_ID":"46797","SEMIMAJOR_AXIS":"6777.305","ELEMENT_SET_NO":"999","TIME_SYSTEM":"UTC","APOAPSIS":"399.701","CLASSIFICATION_TYPE":"U","OBJECT_NAME":"STARLINK-1947","RA_OF_ASC_NODE":"129.7558","MEAN_MOTION_DOT":"0.00014383","ECCENTRICITY":"0.00007830","OBJECT_TYPE":"PAYLOAD","MEAN_ELEMENT_THEORY":"SGP4","MEAN_MOTION":"15.56027264","REF_FRAME":"TEME","MEAN_MOTION_DDOT":"0.0000000000000","EPOCH":"2021-11-19T12:05:34.818144","PERIOD":"92.543","GP_ID":"190074549","TLE_LINE2":"2 46797  53.0545 129.7558 0000783  67.7221 292.3873 15.56027264 60500","PERIAPSIS":"398.639","RCS_SIZE":"LARGE","DECAY_DATE":null},{"ECCENTRICITY":"0.00018030","MEAN_ELEMENT_THEORY":"SGP4","MEAN_MOTION":"15.06394034","REF_FRAME":"TEME","OBJECT_TYPE":"PAYLOAD","EPOCH":"2021-11-19T08:48:19.509408","MEAN_MOTION_DDOT":"0.0000000000000","PERIOD":"95.593","GP_ID":"190074800","TLE_LINE2":"2 46798  53.0537 190.5674 0001803  76.6924 283.4266 15.06394034 59636","PERIAPSIS":"545.983","RCS_SIZE":"LARGE","DECAY_DATE":null,"ARG_OF_PERICENTER":"76.6924","OBJECT_ID":"2020-074BM","FILE":"3219209","REV_AT_EPOCH":"5963","EPHEMERIS_TYPE":"0","BSTAR":"0.00014007000000","LAUNCH_DATE":"2020-10-24","COUNTRY_CODE":"US","MEAN_ANOMALY":"283.4266","CENTER_NAME":"EARTH","TLE_LINE1":"1 46798U 20074BM  21323.36689247  .00001805  00000-0  14007-3 0  9992","SITE":"AFETR","INCLINATION":"53.0537","SEMIMAJOR_AXIS":"6925.367","NORAD_CAT_ID":"46798","TIME_SYSTEM":"UTC","ELEMENT_SET_NO":"999","APOAPSIS":"548.480","CLASSIFICATION_TYPE":"U","OBJECT_NAME":"STARLINK-1948","MEAN_MOTION_DOT":"0.00001805","RA_OF_ASC_NODE":"190.5674"}];
